ONEWEB-0144             
1 47290U 20100AJ  25350.62593010  .00000326  00000+0  86854-3 0  9990
2 47290  87.8935  26.8970 0001471  89.4786 270.6511 13.12533413240623
ONEWEB-0145             
1 47291U 20100AK  25350.59690379 -.00000404  00000+0 -11568-2 0  9991
2 47291  87.8941  26.9415 0001681  96.0261 264.1060 13.12481653240817
ONEWEB-0146             
1 47292U 20100AL  25350.82231480 -.00000207  00000+0 -61097-3 0  9996
2 47292  87.8938  26.8828 0002129  97.0943 263.0428 13.12499812240752
ONEWEB-0147             
1 47293U 20100AM  25350.63587201  .00000428  00000+0  11531-2 0  9991
2 47293  87.8940  26.8984 0001783  86.8014 273.3319 13.12473613240629
ONEWEB-0115             
1 48042U 21025A   25350.95889978 -.00000071  00000+0 -22949-3 0  9994
2 48042  87.8986 356.4336 0001842  91.4896 268.6444 13.13471985229670
ONEWEB-0152             
1 48043U 21025B   25350.97244828 -.00000217  00000+0 -62917-3 0  9997
2 48043  87.8971 356.4376 0001928  89.7086 270.4265 13.13471623229632
ONEWEB-0153             
1 48044U 21025C   25350.95044456  .00000201  00000+0  51428-3 0  9997
2 48044  87.8982 356.4474 0001708  91.2346 268.8979 13.13471008229626
ONEWEB-0154             
1 48045U 21025D   25350.94705449  .00000244  00000+0  63406-3 0  9999
2 48045  87.8982 356.4445 0001779  88.0686 272.0647 13.13471294229585
